[{"OBJECT_NAME":"OBJECT C","OBJECT_ID":"2025-274C","EPOCH":"2026-03-09T09:15:50.748192","MEAN_MOTION":14.92548925,"ECCENTRICITY":0.00113303,"INCLINATION":97.7436,"RA_OF_ASC_NODE":359.0846,"ARG_OF_PERICENTER":338.0419,"MEAN_ANOMALY":22.0314,"EPHEMERIS_TYPE":0,"CLASSIFICATION_TYPE":"U","NORAD_CAT_ID":66652,"ELEMENT_SET_NO":999,"REV_AT_EPOCH":1532,"BSTAR":0.00033513177,"MEAN_MOTION_DOT":3.392e-5,"MEAN_MOTION_DDOT":0},{"OBJECT_NAME":"FENGYUN 1C DEB","OBJECT_ID":"1999-025BYF","EPOCH":"2026-02-08T04:35:15.972576","MEAN_MOTION":14.66466333,"ECCENTRICITY":0.01751215,"INCLINATION":99.0616,"RA_OF_ASC_NODE":209.5417,"ARG_OF_PERICENTER":124.4609,"MEAN_ANOMALY":237.3278,"EPHEMERIS_TYPE":0,"CLASSIFICATION_TYPE":"U","NORAD_CAT_ID":31540,"ELEMENT_SET_NO":999,"REV_AT_EPOCH":99143,"BSTAR":0.0011063664,"MEAN_MOTION_DOT":7.645e-5,"MEAN_MOTION_DDOT":0}]
